[{"OBJECT_NAME":"LEAP-1","OBJECT_ID":"2025-188G","EPOCH":"2026-03-09T22:53:24.912384","MEAN_MOTION":14.91029784,"ECCENTRICITY":0.00036947,"INCLINATION":97.7428,"RA_OF_ASC_NODE":145.2206,"ARG_OF_PERICENTER":154.4312,"MEAN_ANOMALY":205.709,"EPHEMERIS_TYPE":0,"CLASSIFICATION_TYPE":"U","NORAD_CAT_ID":65321,"ELEMENT_SET_NO":999,"REV_AT_EPOCH":2906,"BSTAR":0.00043957921,"MEAN_MOTION_DOT":4.295e-5,"MEAN_MOTION_DDOT":0},{"OBJECT_NAME":"LANDSAT 5","OBJECT_ID":"1984-021A","EPOCH":"2026-03-09T17:06:39.595392","MEAN_MOTION":15.03956175,"ECCENTRICITY":0.00705197,"INCLINATION":98.0698,"RA_OF_ASC_NODE":343.5816,"ARG_OF_PERICENTER":90.3041,"MEAN_ANOMALY":270.6265,"EPHEMERIS_TYPE":0,"CLASSIFICATION_TYPE":"U","NORAD_CAT_ID":14780,"ELEMENT_SET_NO":999,"REV_AT_EPOCH":77643,"BSTAR":0.00029889959,"MEAN_MOTION_DOT":4.286e-5,"MEAN_MOTION_DDOT":0}]
